SL-3 R/B                
1 19046U 88032B   17131.89484503  .00000103  00000-0  12263-4 0  9997
2 19046  97.5285 179.8626 0037738  92.0675 268.4872 15.02180880566900
SL-16 R/B               
1 19120U 88039B   17131.93311365  .00000086  00000-0  63741-4 0  9994
2 19120  71.0164  41.5257 0024023 246.0337 113.8272 14.19166807500972
COSMOS 1953             
1 19210U 88050A   17131.86529126 -.00000033  00000-0 -43535-5 0  9999
2 19210  82.5186  68.6025 0014153  31.5253 328.6819 15.05238186551248
SL-8 R/B                
1 19257U 88053B   17131.89202627  .00000053  00000-0  26469-4 0  9996
2 19257  74.0483 283.2625 0020486 185.6966 285.2074 14.37356506513277
COSMOS 1975             
1 19573U 88093A   17131.88216636  .00000292  00000-0  18902-4 0  9993
2 19573  82.5220  20.6105 0016147  65.1707 295.1197 15.04138722533216
SL-14 R/B               
1 19574U 88093B   17131.72194309  .00000079  00000-0  67345-5 0  9998
2 19574  82.5323 179.1621 0020351 234.3981 265.4848 14.83215813544049
SL-16 R/B               
1 19650U 88102B   17131.90433664  .00000005  00000-0  27084-4 0  9998
2 19650  70.9995  91.3879 0016322 242.4304 117.5162 14.15760651470585
INTERCOSMOS 24          
1 20261U 89080A   17131.92991582  .00000026  00000-0  17374-5 0  9999
2 20261  82.5954  33.4357 1204255 180.3137 179.7352 12.55869767261822
SL-14 R/B               
1 20262U 89080C   17131.89028793  .00000040  00000-0  91478-5 0  9994
2 20262  82.5942  79.3477 1236955 339.4037  16.1048 12.48861611257610
DELTA 1 R/B             
1 20323U 89089B   17131.84687686  .00000069  00000-0  27114-4 0  9994
2 20323  97.1066  83.4400 0071382 193.5738 166.3541 14.48194378449469
DELTA 2 R/B(1)          
1 20453U 90008B   17131.89936869  .00000478  00000-0  29843-4 0  9991
2 20453  35.6265  83.4675 0290550 226.5357 131.0850 14.83049014442818
COSMOS 2058             
1 20465U 90010A   17131.93572374  .00000204  00000-0  15164-4 0  9997
2 20465  82.4882 282.7056 0016908  60.1515 300.1385 14.97494993458807
SL-14 R/B               
1 20466U 90010B   17131.82914528  .00000068  00000-0  56597-5 0  9991
2 20466  82.5058  46.6266 0022113  97.3667 263.0061 14.81278122451054
SL-14 R/B               
1 20511U 90018B   17131.94886446  .00000095  00000-0  94681-5 0  9996
2 20511  82.5228 347.8612 0016266 228.7262 261.7159 14.79937642445601
HST                     
1 20580U 90037B   17131.72607639  .00000480  00000-0  18628-4 0  9998
2 20580  28.4695 248.4464 0002839 136.5924  81.4422 15.08759509284683
SL-16 R/B               
1 20625U 90046B   17131.72080471  .00000282  00000-0  17137-3 0  9990
2 20625  71.0001 225.6721 0013914 170.9429 189.1947 14.14616483392428
COSMOS 2084             
1 20663U 90055A   17131.89114455  .00000094  00000-0  25698-4 0  9993
2 20663  62.7929 349.2709 0140712  86.4336 275.2838 14.91553592454386
SL-6 R/B(2)             
1 20666U 90055D   17131.76032755  .00000069  00000-0  23769-4 0  9993
2 20666  62.7839 268.5896 0133061 105.5609 256.0219 14.91909227456274
SL-8 R/B                
1 20775U 90078B   17131.86593852  .00001670  00000-0  80361-4 0  9990
2 20775  82.9302  77.9618 0591015  94.0902 272.8022 14.30415315343583
SL-8 R/B                
1 21088U 91006B   17131.87618828  .00000035  00000-0  20158-4 0  9994
2 21088  82.9452  47.2320 0023873  63.3996   2.0209 13.77052361320337
OKEAN-3                 
1 21397U 91039A   17131.58502959  .00000202  00000-0  17085-4 0  9999
2 21397  82.5217 173.1830 0017978   5.2447 354.8958 14.92470434404329
COSMOS 2151             
1 21422U 91042A   17131.91236821  .00000179  00000-0  15143-4 0  9997
2 21422  82.4992 280.9604 0015569  59.3603 300.9149 14.91813609382010
SL-14 R/B               
1 21423U 91042B   17131.67995948  .00000084  00000-0  80380-5 0  9994
2 21423  82.4943 355.5370 0018015  15.0920 345.0827 14.79689901376148
ERS-1                   
1 21574U 91050A   17131.86366037  .00000023  00000-0  22002-4 0  9991
2 21574  98.4573  79.6027 0034205  64.3060 296.1652 14.37580435352383
ARIANE 40 R/B           
1 21610U 91050F   17131.79602618  .00000018  00000-0  19824-4 0  9994
2 21610  98.6080 188.1256 0004187  64.8329  51.8709 14.40793395354878
INTERCOSMOS 25          
1 21819U 91086A   17131.57393821  .00000634  00000-0  11819-3 0  9992
2 21819  82.5525  85.0147 1525474 164.7537 200.5406 12.04472906107859
SL-14 R/B               
1 21820U 91086B   17131.95946449  .00000144  00000-0  26246-4 0  9993
2 21820  82.5574 139.8686 1576662 350.6808   6.7868 11.93302711102466
SL-8 R/B                
1 21876U 92008B   17131.96641493  .00000093  00000-0  79673-4 0  9996
2 21876  82.9242 144.1366 0035897 133.7177 289.6962 13.75600469266174
SL-8 R/B                
1 21938U 92020B   17131.82714080  .00000033  00000-0  19019-4 0  9999
2 21938  82.9330  27.4611 0027973 295.0652 132.5167 13.75252713258295
SL-16 R/B               
1 22220U 92076B   17131.94943319 -.00000231  00000-0 -92017-4 0  9998
2 22220  70.9981 135.5289 0014296 320.0151  71.9222 14.16415974265313
SL-16 R/B               
1 22285U 92093B   17131.82867152  .00000245  00000-0  15097-3 0  9990
2 22285  71.0211 288.5495 0004905 206.7451 153.3420 14.15008777257111
COSMOS 2228             
1 22286U 92094A   17131.86188437  .00000168  00000-0  15665-4 0  9994
2 22286  82.5238  48.3509 0019134 240.3095 119.6218 14.87654560296023
SL-16 R/B               
1 22566U 93016B   17131.51597251 -.00000128  00000-0 -41675-4 0  9998
2 22566  71.0048 143.9011 0011084 200.6972 159.3703 14.14944373246079
COSMOS 2242             
1 22626U 93024A   17131.94815145  .00000172  00000-0  16116-4 0  9995
2 22626  82.5228  75.9827 0017603 238.9641 120.9848 14.87651870300467
SL-16 R/B               
1 22803U 93059B   17131.93519168  .00000217  00000-0  13219-3 0  9995
2 22803  70.9899 325.8285 0015141  79.9634 280.3197 14.16769636222894
ARIANE 40 R/B           
1 22830U 93061H   17131.66432595 -.00000057  00000-0 -38420-5 0  9993
2 22830  98.8853 146.2313 0011586  39.8374  69.0931 14.31410216233024
COSMOS 2278             
1 23087U 94023A   17131.90549267 -.00000319  00000-0 -14356-3 0  9990
2 23087  71.0535  74.8086 0011443 269.7831  90.1980 14.13740690189128
SL-16 R/B               
1 23088U 94023B   17131.92840715 -.00000069  00000-0 -10875-4 0  9990
2 23088  71.0016 358.1583 0003096 197.5925 162.5091 14.14658655190141
SL-16 R/B               
1 23343U 94074B   17131.95338073 -.00000026  00000-0  38274-5 0  9998
2 23343  98.1564 168.6713 0006881 178.0316 236.4329 14.76697475211279
SL-16 R/B               
1 23405U 94077B   17131.87592536 -.00000260  00000-0 -10911-3 0  9994
2 23405  70.9831 291.7399 0003034 328.1066  31.9872 14.15197820160128
ERS-2                   
1 23560U 95021A   17131.84194142  .00001089  00000-0  53727-4 0  9995
2 23560  98.5543 119.3018 0005117  75.1073 285.0725 15.20564289169830
ARIANE 40+ R/B          
1 23561U 95021B   17131.94250578  .00000028  00000-0  24578-4 0  9997
2 23561  98.7928 132.2975 0007202  16.3686  39.1630 14.37811339155825
SL-16 R/B               
1 23705U 95058B   17131.90530225 -.00000134  00000-0 -44404-4 0  9993
2 23705  71.0191 105.1565 0012840 343.3603  16.7097 14.15096875111759
SL-16 R/B               
1 24298U 96051B   17131.96426237  .00000035  00000-0  45281-4 0  9990
2 24298  70.8483 138.4341 0019223 237.5701 122.3560 14.12494852 66442
ORBVIEW 2 (SEASTAR)     
1 24883U 97037A   17131.88899317  .00000022  00000-0  23820-4 0  9990
2 24883  98.5374 241.0289 0002098 183.0321 177.0851 14.33387209 46454
SL-16 R/B               
1 25400U 98043G   17131.85330779 -.00000011  00000-0  13260-4 0  9999
2 25400  98.4858  81.2401 0010742  46.8603 313.3474 14.25409860979898
SL-16 R/B               
1 25407U 98045B   17131.48127840  .00000012  00000-0  30427-4 0  9994
2 25407  71.0086 118.5686 0010066 264.0114  95.9862 14.15761385970712
ISS (ZARYA)             
1 25544U 98067A   17131.72584779  .00002037  00000-0  38184-4 0  9992
2 25544  51.6435 220.0433 0005347 146.2916 350.0569 15.54004211 56088
SL-8 R/B                
1 25723U 99022C   17131.70817487  .00004313  00000-0  72992-4 0  9990
2 25723  48.4177   1.8464 0011042 220.8006 139.2112 15.53665455   500
CZ-4B R/B               
1 25732U 99025C   17131.97113684 -.00000016  00000-0  14508-4 0  9996
2 25732  98.9915 133.2780 0037127 192.8470 220.0976 14.17630345931404
OKEAN-O                 
1 25860U 99039A   17131.95293679  .00000023  00000-0  10905-4 0  9998
2 25860  98.1842 116.3359 0000872  98.4747 261.6561 14.76470623958389
SL-16 R/B               
1 25861U 99039B   17131.89271441  .00000011  00000-0  89658-5 0  9994
2 25861  98.1021 102.9655 0015284 193.6680 218.9635 14.78407697960301
TERRA                   
1 25994U 99068A   17131.81002569  .00000307  00000-0  78120-4 0  9997
2 25994  98.2120 207.3714 0001359 116.9424 243.1898 14.57112580925377
SL-14 R/B               
1 26874U 01032B   17116.87792345  .04235169 -12494-5  10527-3 0  9998
2 26874  82.4256 291.4232 0009230 252.0726 108.9158 16.45439032885614
ENVISAT                 
1 27386U 02009A   17131.92299868 -.00000015  00000-0  86235-5 0  9999
2 27386  98.2349 178.7085 0001328  81.1836 278.9501 14.37894617795867
IDEFIX & ARIANE 42P R/B 
1 27422U 02021B   17131.61589732 -.00000044  00000-0 -14605-5 0  9997
2 27422  98.2296 133.9139 0012046 351.5116   8.5861 14.29253075783340
AQUA                    
1 27424U 02022A   17131.91562854  .00000110  00000-0  34384-4 0  9996
2 27424  98.2026  73.7533 0000860 153.0401 299.1971 14.57109646798942
CZ-4B R/B               
1 27432U 02024C   17131.94292819 -.00000024  00000-0  10636-4 0  9990
2 27432  98.9848 105.3088 0051224 134.0674 290.2311 14.14042103773599
MIDORI II (ADEOS-II)    
1 27597U 02056A   17131.94878404  .00000019  00000-0  24857-4 0  9990
2 27597  98.3664 103.0552 0002252  82.1480 277.9957 14.27283910750250
